{
  "type": "FeatureCollection",
  "features": [
    {
      "type": "Feature",
      "properties": {
        "norad_id": 34010,
        "name": "COSMOS 2251 DEB",
        "group": "cosmos-2251-debris",
        "lat": -7.689833531738341,
        "lon": 82.97590132120922,
        "alt_km": 510.2657248066116,
        "timestamp": "2025-12-23T11:34:48.554044+00:00",
        "meta_object_name": "COSMOS 2251 DEB",
        "meta_object_id": "1993-036GV",
        "meta_epoch": "2025-12-22T11:04:03.553536",
        "meta_mean_motion": 15.20239732,
        "meta_eccentricity": 0.00044981,
        "meta_inclination": 73.9984,
        "meta_ra_of_asc_node": 262.9011,
        "meta_arg_of_pericenter": 57.977,
        "meta_mean_anomaly": 302.1864,
        "meta_ephemeris_type": 0,
        "meta_classification_type": "U",
        "meta_norad_cat_id": 34010,
        "meta_element_set_no": 999,
        "meta_rev_at_epoch": 89433,
        "meta_bstar": 0.0045006568,
        "meta_mean_motion_dot": 0.00098985,
        "meta_mean_motion_ddot": 0,
        "tle_line1": "1 34010U 93036GV  25356.46115224  .00098985  00000+0  45007-2 0  9991",
        "tle_line2": "2 34010  73.9984 262.9011 0004498  57.9770 302.1864 15.20239732894336"
      },
      "geometry": {
        "type": "Point",
        "coordinates": [
          82.97590132120922,
          -7.689833531738341
        ]
      }
    },
    {
      "type": "Feature",
      "properties": {
        "norad_id": 34011,
        "name": "COSMOS 2251 DEB",
        "group": "cosmos-2251-debris",
        "lat": -15.481868977163886,
        "lon": 134.76950629020234,
        "alt_km": 781.7541107658708,
        "timestamp": "2025-12-23T11:34:48.554053+00:00",
        "meta_object_name": "COSMOS 2251 DEB",
        "meta_object_id": "1993-036GW",
        "meta_epoch": "2025-12-20T21:03:41.222016",
        "meta_mean_motion": 14.41804306,
        "meta_eccentricity": 0.0036046,
        "meta_inclination": 74.0145,
        "meta_ra_of_asc_node": 315.0473,
        "meta_arg_of_pericenter": 36.2778,
        "meta_mean_anomaly": 324.0811,
        "meta_ephemeris_type": 0,
        "meta_classification_type": "U",
        "meta_norad_cat_id": 34011,
        "meta_element_set_no": 999,
        "meta_rev_at_epoch": 88033,
        "meta_bstar": 0.00051243,
        "meta_mean_motion_dot": 1.661e-05,
        "meta_mean_motion_ddot": 0,
        "tle_line1": "1 34011U 93036GW  25354.87756044  .00001661  00000+0  51243-3 0  9991",
        "tle_line2": "2 34011  74.0145 315.0473 0036046  36.2778 324.0811 14.41804306880339"
      },
      "geometry": {
        "type": "Point",
        "coordinates": [
          134.76950629020234,
          -15.481868977163886
        ]
      }
    },
    {
      "type": "Feature",
      "properties": {
        "norad_id": 34014,
        "name": "COSMOS 2251 DEB",
        "group": "cosmos-2251-debris",
        "lat": -73.57625190596295,
        "lon": 156.25778766488466,
        "alt_km": 674.5854566189182,
        "timestamp": "2025-12-23T11:34:48.554062+00:00",
        "meta_object_name": "COSMOS 2251 DEB",
        "meta_object_id": "1993-036GZ",
        "meta_epoch": "2025-12-22T03:43:38.357184",
        "meta_mean_motion": 14.73241983,
        "meta_eccentricity": 0.00374339,
        "meta_inclination": 74.0173,
        "meta_ra_of_asc_node": 262.3559,
        "meta_arg_of_pericenter": 39.3733,
        "meta_mean_anomaly": 31.0077,
        "meta_ephemeris_type": 0,
        "meta_classification_type": "U",
        "meta_norad_cat_id": 34014,
        "meta_element_set_no": 999,
        "meta_rev_at_epoch": 89442,
        "meta_bstar": 0.0008905225,
        "meta_mean_motion_dot": 5.788e-05,
        "meta_mean_motion_ddot": 0,
        "tle_line1": "1 34014U 93036GZ  25356.15530506  .00005788  00000+0  89052-3 0  9993",
        "tle_line2": "2 34014  74.0173 262.3559 0037433  39.3733  31.0077 14.73241983894423"
      },
      "geometry": {
        "type": "Point",
        "coordinates": [
          156.25778766488466,
          -73.57625190596295
        ]
      }
    },
    {
      "type": "Feature",
      "properties": {
        "norad_id": 34015,
        "name": "COSMOS 2251 DEB",
        "group": "cosmos-2251-debris",
        "lat": -60.71935581694305,
        "lon": -10.37561803599685,
        "alt_km": 684.127686361624,
        "timestamp": "2025-12-23T11:34:48.554071+00:00",
        "meta_object_name": "COSMOS 2251 DEB",
        "meta_object_id": "1993-036HA",
        "meta_epoch": "2025-12-22T20:12:20.020896",
        "meta_mean_motion": 14.60369395,
        "meta_eccentricity": 0.00209819,
        "meta_inclination": 74.0244,
        "meta_ra_of_asc_node": 140.1244,
        "meta_arg_of_pericenter": 236.9409,
        "meta_mean_anomaly": 241.5911,
        "meta_ephemeris_type": 0,
        "meta_classification_type": "U",
        "meta_norad_cat_id": 34015,
        "meta_element_set_no": 999,
        "meta_rev_at_epoch": 88678,
        "meta_bstar": 0.0012041911,
        "meta_mean_motion_dot": 5.818e-05,
        "meta_mean_motion_ddot": 0,
        "tle_line1": "1 34015U 93036HA  25356.84189839  .00005818  00000+0  12042-2 0  9997",
        "tle_line2": "2 34015  74.0244 140.1244 0020981 236.9409 241.5911 14.60369395886781"
      },
      "geometry": {
        "type": "Point",
        "coordinates": [
          -10.37561803599685,
          -60.71935581694305
        ]
      }
    },
    {
      "type": "Feature",
      "properties": {
        "norad_id": 34018,
        "name": "COSMOS 2251 DEB",
        "group": "cosmos-2251-debris",
        "lat": -27.6550519352737,
        "lon": -97.39115713476623,
        "alt_km": 997.5781507522524,
        "timestamp": "2025-12-23T11:34:48.554080+00:00",
        "meta_object_name": "COSMOS 2251 DEB",
        "meta_object_id": "1993-036HD",
        "meta_epoch": "2025-12-22T23:15:50.020416",
        "meta_mean_motion": 13.8108309,
        "meta_eccentricity": 0.0263205,
        "meta_inclination": 73.878,
        "meta_ra_of_asc_node": 74.7609,
        "meta_arg_of_pericenter": 108.6842,
        "meta_mean_anomaly": 66.6318,
        "meta_ephemeris_type": 0,
        "meta_classification_type": "U",
        "meta_norad_cat_id": 34018,
        "meta_element_set_no": 999,
        "meta_rev_at_epoch": 84798,
        "meta_bstar": 0.00035268,
        "meta_mean_motion_dot": 4.63e-06,
        "meta_mean_motion_ddot": 0,
        "tle_line1": "1 34018U 93036HD  25356.96932894  .00000463  00000+0  35268-3 0  9997",
        "tle_line2": "2 34018  73.8780  74.7609 0263205 108.6842  66.6318 13.81083090847980"
      },
      "geometry": {
        "type": "Point",
        "coordinates": [
          -97.39115713476623,
          -27.6550519352737
        ]
      }
    },
    {
      "type": "Feature",
      "properties": {
        "norad_id": 34019,
        "name": "COSMOS 2251 DEB",
        "group": "cosmos-2251-debris",
        "lat": -32.8380617164922,
        "lon": -138.31205251828345,
        "alt_km": 739.7131265091712,
        "timestamp": "2025-12-23T11:34:48.554089+00:00",
        "meta_object_name": "COSMOS 2251 DEB",
        "meta_object_id": "1993-036HE",
        "meta_epoch": "2025-12-23T04:09:30.710304",
        "meta_mean_motion": 14.33981618,
        "meta_eccentricity": 0.0062291,
        "meta_inclination": 73.9532,
        "meta_ra_of_asc_node": 31.5513,
        "meta_arg_of_pericenter": 211.1848,
        "meta_mean_anomaly": 207.2865,
        "meta_ephemeris_type": 0,
        "meta_classification_type": "U",
        "meta_norad_cat_id": 34019,
        "meta_element_set_no": 999,
        "meta_rev_at_epoch": 87670,
        "meta_bstar": 0.00068636,
        "meta_mean_motion_dot": 1.931e-05,
        "meta_mean_motion_ddot": 0,
        "tle_line1": "1 34019U 93036HE  25357.17327211  .00001931  00000+0  68636-3 0  9999",
        "tle_line2": "2 34019  73.9532  31.5513 0062291 211.1848 207.2865 14.33981618876703"
      },
      "geometry": {
        "type": "Point",
        "coordinates": [
          -138.31205251828345,
          -32.8380617164922
        ]
      }
    },
    {
      "type": "Feature",
      "properties": {
        "norad_id": 34021,
        "name": "COSMOS 2251 DEB",
        "group": "cosmos-2251-debris",
        "lat": -30.243441544991793,
        "lon": -60.734876228919234,
        "alt_km": 720.07322306471,
        "timestamp": "2025-12-23T11:34:48.554098+00:00",
        "meta_object_name": "COSMOS 2251 DEB",
        "meta_object_id": "1993-036HG",
        "meta_epoch": "2025-12-23T01:28:05.125152",
        "meta_mean_motion": 14.49983288,
        "meta_eccentricity": 0.0020976,
        "meta_inclination": 74.036,
        "meta_ra_of_asc_node": 110.4487,
        "meta_arg_of_pericenter": 253.5274,
        "meta_mean_anomaly": 279.6674,
        "meta_ephemeris_type": 0,
        "meta_classification_type": "U",
        "meta_norad_cat_id": 34021,
        "meta_element_set_no": 999,
        "meta_rev_at_epoch": 88779,
        "meta_bstar": 0.0004422,
        "meta_mean_motion_dot": 1.689e-05,
        "meta_mean_motion_ddot": 0,
        "tle_line1": "1 34021U 93036HG  25357.06117043  .00001689  00000+0  44220-3 0  9993",
        "tle_line2": "2 34021  74.0360 110.4487 0020976 253.5274 279.6674 14.49983288887795"
      },
      "geometry": {
        "type": "Point",
        "coordinates": [
          -60.734876228919234,
          -30.243441544991793
        ]
      }
    }
  ]
}